{
"type": "FeatureCollection",
"name": "body_surfing",
"crs": { "type": "name", "properties": { "name": "urn:ogc:def:crs:OGC:1.3:CRS84" } },
"features": [
{ "type": "Feature", "properties": { "objectid": 1, "fignum": 8, "name": "Ho'okena Beach", "loc": "Kauhako Bay, Kauhako, South Kona", "aname": " ", "siglevel": 0, "sigregion": 2, "beginner": "1-3", "intermedia": " ", "expert": " ", "surftype": " ", "hazcond": 0, "comments": " " }, "geometry": { "type": "Point", "coordinates": [ -155.898467116575347, 19.379607203823777 ] } },
{ "type": "Feature", "properties": { "objectid": 2, "fignum": 9, "name": "Napo'opo'o Beach", "loc": "Kealakekua, South Kona", "aname": " ", "siglevel": 2, "sigregion": 2, "beginner": " ", "intermedia": "1-5", "expert": " ", "surftype": " ", "hazcond": 0, "comments": " " }, "geometry": { "type": "Point", "coordinates": [ -155.919891896152421, 19.474777576575391 ] } },
{ "type": "Feature", "properties": { "objectid": 3, "fignum": 2, "name": "Pololu Bay", "loc": "Pololu, North Kohala", "aname": " ", "siglevel": 2, "sigregion": 2, "beginner": " ", "intermedia": "1-5", "expert": " ", "surftype": " ", "hazcond": 0, "comments": " " }, "geometry": { "type": "Point", "coordinates": [ -155.730716655441938, 20.203407468035103 ] } },
{ "type": "Feature", "properties": { "objectid": 4, "fignum": 2, "name": "Honokane Iki Bay", "loc": "Honokane, North Kohala", "aname": " ", "siglevel": 1, "sigregion": 2, "beginner": "1-3", "intermedia": " ", "expert": " ", "surftype": " ", "hazcond": 0, "comments": " " }, "geometry": { "type": "Point", "coordinates": [ -155.716272399422252, 20.192551482059418 ] } },
{ "type": "Feature", "properties": { "objectid": 5, "fignum": 3, "name": "Waimanu Bay", "loc": "Waimanu, Hamakua", "aname": " ", "siglevel": 0, "sigregion": 2, "beginner": " ", "intermedia": "1-5", "expert": " ", "surftype": " ", "hazcond": 0, "comments": " " }, "geometry": { "type": "Point", "coordinates": [ -155.637127160448273, 20.144980813595183 ] } },
{ "type": "Feature", "properties": { "objectid": 6, "fignum": 10, "name": "Tiki's", "loc": "Kahului Bay, Kahului, 1-2, North Kona", "aname": " ", "siglevel": 2, "sigregion": 2, "beginner": " ", "intermedia": "1-5", "expert": " ", "surftype": "reef break", "hazcond": 0, "comments": " " }, "geometry": { "type": "Point", "coordinates": [ -155.985939201080441, 19.623961345580277 ] } },
{ "type": "Feature", "properties": { "objectid": 7, "fignum": 7, "name": "Green Sands Beach", "loc": "Mahana Bay, Kama'oa, Pu'ueo, Ka'u", "aname": " ", "siglevel": 0, "sigregion": 2, "beginner": " ", "intermedia": "1-5", "expert": " ", "surftype": " ", "hazcond": 0, "comments": " " }, "geometry": { "type": "Point", "coordinates": [ -155.646445252848281, 18.935992456874608 ] } },
{ "type": "Feature", "properties": { "objectid": 8, "fignum": 5, "name": "Halape", "loc": "Kapapala, Ka'u", "aname": " ", "siglevel": 1, "sigregion": 2, "beginner": " ", "intermedia": "1-5", "expert": " ", "surftype": " ", "hazcond": 0, "comments": " " }, "geometry": { "type": "Point", "coordinates": [ -155.255671262027221, 19.270321705288687 ] } },
{ "type": "Feature", "properties": { "objectid": 9, "fignum": 12, "name": "Mauna Kea Beach", "loc": "Kauna'oa Bay, Ouli, South Kohala", "aname": " ", "siglevel": 2, "sigregion": 2, "beginner": " ", "intermedia": "1-5", "expert": " ", "surftype": " ", "hazcond": 0, "comments": " " }, "geometry": { "type": "Point", "coordinates": [ -155.824995683933992, 20.004069095743212 ] } },
{ "type": "Feature", "properties": { "objectid": 10, "fignum": 10, "name": "White Sands Beach (shorebreak)", "loc": "La'aloa, North Kona", "aname": " ", "siglevel": 3, "sigregion": 3, "beginner": "1-3", "intermedia": "3-5", "expert": " ", "surftype": "shorebreak", "hazcond": 0, "comments": " " }, "geometry": { "type": "Point", "coordinates": [ -155.971715400686776, 19.593727681166886 ] } },
{ "type": "Feature", "properties": { "objectid": 11, "fignum": 10, "name": "White Sands Beach (point break)", "loc": "La'aloa, North Kohala", "aname": " ", "siglevel": 3, "sigregion": 4, "beginner": " ", "intermedia": " ", "expert": "1-10", "surftype": "point break", "hazcond": 0, "comments": " " }, "geometry": { "type": "Point", "coordinates": [ -155.971760603127052, 19.593723358842546 ] } },
{ "type": "Feature", "properties": { "objectid": 12, "fignum": 3, "name": "Waipi'o Bay", "loc": "Waipi'o, Hamakua", "aname": " ", "siglevel": 2, "sigregion": 2, "beginner": " ", "intermedia": "1-5", "expert": " ", "surftype": " ", "hazcond": 0, "comments": " " }, "geometry": { "type": "Point", "coordinates": [ -155.595419641353999, 20.121211339800691 ] } },
{ "type": "Feature", "properties": { "objectid": 13, "fignum": 11, "name": "MANINI'OWALI", "loc": "Kua Bay, Manini'owali & Kuki'o 2, North Kona", "aname": " ", "siglevel": 3, "sigregion": 4, "beginner": " ", "intermedia": "1-5", "expert": " ", "surftype": " ", "hazcond": 0, "comments": " " }, "geometry": { "type": "Point", "coordinates": [ -156.006774664142227, 19.811048917048343 ] } },
{ "type": "Feature", "properties": { "objectid": 14, "fignum": 6, "name": "Kawa Bay", "loc": "Hilea Nui, Ka'u", "aname": " ", "siglevel": 0, "sigregion": 2, "beginner": "1-3", "intermedia": " ", "expert": " ", "surftype": " ", "hazcond": 0, "comments": " " }, "geometry": { "type": "Point", "coordinates": [ -155.525415455407938, 19.113695942786382 ] } },
{ "type": "Feature", "properties": { "objectid": 15, "fignum": 4, "name": "Kehena Beach", "loc": "Keauohana & Kehena, Puna", "aname": " ", "siglevel": 1, "sigregion": 2, "beginner": " ", "intermedia": "1-5", "expert": " ", "surftype": " ", "hazcond": 0, "comments": " " }, "geometry": { "type": "Point", "coordinates": [ -154.929662395356729, 19.393780799705251 ] } },
{ "type": "Feature", "properties": { "objectid": 16, "fignum": 12, "name": "Wailea Bay", "loc": "Lalamilo, South Kohala", "aname": " ", "siglevel": 0, "sigregion": 4, "beginner": " ", "intermedia": "1-5", "expert": " ", "surftype": "shore & point break", "hazcond": 0, "comments": " " }, "geometry": { "type": "Point", "coordinates": [ -155.828530986498976, 19.982023443440621 ] } },
{ "type": "Feature", "properties": { "objectid": 17, "fignum": 12, "name": "Hapuna Bay", "loc": "Lalamilo, South Kohala", "aname": " ", "siglevel": 3, "sigregion": 4, "beginner": " ", "intermedia": "1-3", "expert": "3-10", "surftype": " ", "hazcond": 0, "comments": " " }, "geometry": { "type": "Point", "coordinates": [ -155.826395699369129, 19.991811237090516 ] } },
{ "type": "Feature", "properties": { "objectid": 18, "fignum": 44, "name": "Secret Beach", "loc": "Kauapea Beach, Kalihiwai & Kilauea, Hanalei", "aname": " ", "siglevel": 0, "sigregion": 2, "beginner": " ", "intermedia": "1-5", "expert": " ", "surftype": " ", "hazcond": 0, "comments": " " }, "geometry": { "type": "Point", "coordinates": [ -159.406963797344162, 22.225530404435325 ] } },
{ "type": "Feature", "properties": { "objectid": 19, "fignum": 44, "name": "Moloa'a Bay", "loc": "Moloa'a, Kawaihau", "aname": " ", "siglevel": 0, "sigregion": 2, "beginner": " ", "intermedia": "1-5", "expert": " ", "surftype": " ", "hazcond": 0, "comments": " " }, "geometry": { "type": "Point", "coordinates": [ -159.332387732557976, 22.193473358845527 ] } },
{ "type": "Feature", "properties": { "objectid": 20, "fignum": 45, "name": "Donkey Beach", "loc": "Kealia, Kawaihau", "aname": " ", "siglevel": 3, "sigregion": 2, "beginner": " ", "intermedia": "1-5", "expert": " ", "surftype": " ", "hazcond": 0, "comments": " " }, "geometry": { "type": "Point", "coordinates": [ -159.29620857038185, 22.112653091826083 ] } },
{ "type": "Feature", "properties": { "objectid": 21, "fignum": 45, "name": "Anahola Beach", "loc": "Anahola, Kawaihau", "aname": " ", "siglevel": 3, "sigregion": 2, "beginner": " ", "intermedia": "1-5", "expert": " ", "surftype": " ", "hazcond": 0, "comments": " " }, "geometry": { "type": "Point", "coordinates": [ -159.304517393723586, 22.147776058641924 ] } },
{ "type": "Feature", "properties": { "objectid": 22, "fignum": 42, "name": "Kalalau Beach", "loc": "Kalalau, Hanalei", "aname": " ", "siglevel": 3, "sigregion": 4, "beginner": " ", "intermedia": "1-3", "expert": "3-10", "surftype": " ", "hazcond": 0, "comments": " " }, "geometry": { "type": "Point", "coordinates": [ -159.659768853364511, 22.172522031531738 ] } },
{ "type": "Feature", "properties": { "objectid": 23, "fignum": 42, "name": "Hanakapi'ai Beach", "loc": "Hanakapi'ai, Hanalei", "aname": " ", "siglevel": 3, "sigregion": 4, "beginner": " ", "intermedia": "1-3", "expert": "3-10", "surftype": " ", "hazcond": 0, "comments": " " }, "geometry": { "type": "Point", "coordinates": [ -159.597704003209827, 22.209148178352265 ] } },
{ "type": "Feature", "properties": { "objectid": 24, "fignum": 43, "name": "Lumaha'i", "loc": "Lumaha'i Beach, Lumaha'i, Hanalei", "aname": " ", "siglevel": 0, "sigregion": 3, "beginner": " ", "intermedia": "3-5", "expert": "6-10", "surftype": " ", "hazcond": 0, "comments": " " }, "geometry": { "type": "Point", "coordinates": [ -159.531480176598677, 22.216092656548781 ] } },
{ "type": "Feature", "properties": { "objectid": 25, "fignum": 43, "name": "Pine Trees", "loc": "Hanalei Bay, Wai'oli, Hanalei", "aname": " ", "siglevel": 3, "sigregion": 4, "beginner": " ", "intermedia": "1-5", "expert": " ", "surftype": " ", "hazcond": 0, "comments": " " }, "geometry": { "type": "Point", "coordinates": [ -159.503998867416527, 22.203003987003125 ] } },
{ "type": "Feature", "properties": { "objectid": 26, "fignum": 44, "name": "Kalihiwai Bay", "loc": "Kalihiwai, Hanalei", "aname": " ", "siglevel": 0, "sigregion": 3, "beginner": "1-3", "intermedia": " ", "expert": " ", "surftype": " ", "hazcond": 0, "comments": " " }, "geometry": { "type": "Point", "coordinates": [ -159.426705736723562, 22.216971203802839 ] } },
{ "type": "Feature", "properties": { "objectid": 27, "fignum": 45, "name": "Kealia Beach", "loc": "Kealia, Kawaihau", "aname": " ", "siglevel": 0, "sigregion": 2, "beginner": " ", "intermedia": "1-5", "expert": " ", "surftype": " ", "hazcond": 0, "comments": " " }, "geometry": { "type": "Point", "coordinates": [ -159.304968935724759, 22.09765934112994 ] } },
{ "type": "Feature", "properties": { "objectid": 28, "fignum": 46, "name": "Wailua Bay", "loc": "Wailua, Kawaihau", "aname": " ", "siglevel": 3, "sigregion": 4, "beginner": " ", "intermedia": "1-5", "expert": " ", "surftype": " ", "hazcond": 0, "comments": " " }, "geometry": { "type": "Point", "coordinates": [ -159.33480156243175, 22.047534805704732 ] } },
{ "type": "Feature", "properties": { "objectid": 29, "fignum": 47, "name": "Hanama'ulu Bay", "loc": "Hanama'ulu, Lihue", "aname": " ", "siglevel": 0, "sigregion": 1, "beginner": "1-3", "intermedia": " ", "expert": " ", "surftype": " ", "hazcond": 0, "comments": " " }, "geometry": { "type": "Point", "coordinates": [ -159.34105271899179, 21.99238975278023 ] } },
{ "type": "Feature", "properties": { "objectid": 30, "fignum": 48, "name": "Lawa'i Kai", "loc": "Lawa'i Bay, Lawa'i, Koloa", "aname": " ", "siglevel": 3, "sigregion": 4, "beginner": "1-3", "intermedia": "3-5", "expert": " ", "surftype": " ", "hazcond": 0, "comments": " " }, "geometry": { "type": "Point", "coordinates": [ -159.50280473978799, 21.888151832364464 ] } },
{ "type": "Feature", "properties": { "objectid": 31, "fignum": 48, "name": "Brennecke Beach", "loc": "Weliweli, Koloa", "aname": " ", "siglevel": 2, "sigregion": 2, "beginner": " ", "intermedia": "1-5", "expert": " ", "surftype": " ", "hazcond": 0, "comments": "B.S. only high tide (exposed boulders)" }, "geometry": { "type": "Point", "coordinates": [ -159.452183238055852, 21.872800501009177 ] } },
{ "type": "Feature", "properties": { "objectid": 32, "fignum": 48, "name": "Shipwrecks", "loc": "Keoniloa Bay, Pa'a, Koloa", "aname": " ", "siglevel": 3, "sigregion": 4, "beginner": " ", "intermedia": "1-5", "expert": " ", "surftype": " ", "hazcond": 0, "comments": " " }, "geometry": { "type": "Point", "coordinates": [ -159.438234718105576, 21.874346391287173 ] } },
{ "type": "Feature", "properties": { "objectid": 33, "fignum": 42, "name": "Honopuwaiakua", "loc": "Honopu, Hanalei", "aname": "Honopu Beach", "siglevel": 0, "sigregion": 2, "beginner": " ", "intermedia": "1-5", "expert": " ", "surftype": " ", "hazcond": 0, "comments": " " }, "geometry": { "type": "Point", "coordinates": [ -159.668117959082053, 22.167277532748439 ] } },
{ "type": "Feature", "properties": { "objectid": 34, "fignum": 42, "name": "Honopuwaiakanaka", "loc": "Honopu, Hanalei", "aname": "Honopu Beach", "siglevel": 0, "sigregion": 2, "beginner": " ", "intermedia": "1-5", "expert": " ", "surftype": " ", "hazcond": 0, "comments": " " }, "geometry": { "type": "Point", "coordinates": [ -159.672408828315838, 22.165771575303669 ] } },
{ "type": "Feature", "properties": { "objectid": 35, "fignum": 21, "name": "Hamoa Beach", "loc": "Mokae Cove, Mokae, Hana", "aname": " ", "siglevel": 3, "sigregion": 3, "beginner": "1-3", "intermedia": "3-5", "expert": " ", "surftype": " ", "hazcond": 0, "comments": " " }, "geometry": { "type": "Point", "coordinates": [ -155.986846512273786, 20.7196300731793 ] } },
{ "type": "Feature", "properties": { "objectid": 36, "fignum": 21, "name": "Koki Beach", "loc": "Haneo'o, Hana", "aname": " ", "siglevel": 0, "sigregion": 2, "beginner": " ", "intermedia": "1-5", "expert": " ", "surftype": " ", "hazcond": 0, "comments": " " }, "geometry": { "type": "Point", "coordinates": [ -155.985485845455457, 20.728627406519323 ] } },
{ "type": "Feature", "properties": { "objectid": 37, "fignum": 25, "name": "Mokule'ia Beach", "loc": "Honolua, Lahaina", "aname": " ", "siglevel": 3, "sigregion": 3, "beginner": " ", "intermedia": "1-5", "expert": " ", "surftype": " ", "hazcond": 1, "comments": "Hazardous during periods of high surf" }, "geometry": { "type": "Point", "coordinates": [ -156.642469774354282, 21.011385557494137 ] } },
{ "type": "Feature", "properties": { "objectid": 38, "fignum": 25, "name": "Honokahua Bay", "loc": "Honokahua, Lahaina", "aname": " ", "siglevel": 3, "sigregion": 3, "beginner": " ", "intermedia": "1-5", "expert": " ", "surftype": " ", "hazcond": 0, "comments": " " }, "geometry": { "type": "Point", "coordinates": [ -156.652030712344356, 21.004900553295084 ] } },
{ "type": "Feature", "properties": { "objectid": 39, "fignum": 25, "name": "Pounders", "loc": "Oneloa Bay, Honokahua, Lahaina", "aname": " ", "siglevel": 3, "sigregion": 2, "beginner": " ", "intermedia": "1-5", "expert": " ", "surftype": " ", "hazcond": 0, "comments": " " }, "geometry": { "type": "Point", "coordinates": [ -156.659917271441032, 21.004533446769528 ] } },
{ "type": "Feature", "properties": { "objectid": 40, "fignum": 25, "name": "Napili Bay", "loc": "Napili, Lahaina", "aname": " ", "siglevel": 0, "sigregion": 1, "beginner": " ", "intermedia": "1-5", "expert": " ", "surftype": " ", "hazcond": 0, "comments": " " }, "geometry": { "type": "Point", "coordinates": [ -156.666767073002831, 20.995809011346768 ] } },
{ "type": "Feature", "properties": { "objectid": 41, "fignum": 20, "name": "Baldwin Park", "loc": "Wailuku, Wailuku & Hali'imaile, Makawao", "aname": " ", "siglevel": 3, "sigregion": 3, "beginner": " ", "intermedia": "1-5", "expert": " ", "surftype": " ", "hazcond": 1, "comments": "Hazardous during periods of high surf" }, "geometry": { "type": "Point", "coordinates": [ -156.393093407695829, 20.915254753844877 ] } },
{ "type": "Feature", "properties": { "objectid": 42, "fignum": 20, "name": "Pa'ia Bay", "loc": "Hamakua Poko, Makawao", "aname": " ", "siglevel": 3, "sigregion": 3, "beginner": " ", "intermedia": "1-5", "expert": " ", "surftype": "shore & offshore br.", "hazcond": 1, "comments": "Hazardous during periods of high surf" }, "geometry": { "type": "Point", "coordinates": [ -156.383047809198274, 20.916328865113378 ] } },
{ "type": "Feature", "properties": { "objectid": 43, "fignum": 24, "name": "Ka'anapali Beach", "loc": "Honokowai, Lahaina", "aname": "Hanaka'o'o Beach", "siglevel": 0, "sigregion": 2, "beginner": " ", "intermedia": "1-5", "expert": " ", "surftype": " ", "hazcond": 1, "comments": "Hazardous during periods of high surf" }, "geometry": { "type": "Point", "coordinates": [ -156.694161220311429, 20.929714358041078 ] } },
{ "type": "Feature", "properties": { "objectid": 44, "fignum": 22, "name": "Oneloa Beach", "loc": "Mo'oloa, Makawao", "aname": " ", "siglevel": 0, "sigregion": 3, "beginner": " ", "intermedia": "1-5", "expert": " ", "surftype": " ", "hazcond": 0, "comments": " " }, "geometry": { "type": "Point", "coordinates": [ -156.448269771513338, 20.632461296315132 ] } },
{ "type": "Feature", "properties": { "objectid": 45, "fignum": 22, "name": "Pu'u Ola'i Beach", "loc": "Mo'oiki, Makawao", "aname": " ", "siglevel": 3, "sigregion": 3, "beginner": "1-3", "intermedia": "3-5", "expert": " ", "surftype": " ", "hazcond": 0, "comments": " " }, "geometry": { "type": "Point", "coordinates": [ -156.451726293799112, 20.634331652594479 ] } },
{ "type": "Feature", "properties": { "objectid": 46, "fignum": 22, "name": "Palauea Beach", "loc": "Palauea, Makawao", "aname": " ", "siglevel": 0, "sigregion": 2, "beginner": "1-3", "intermedia": "3-5", "expert": " ", "surftype": " ", "hazcond": 0, "comments": " " }, "geometry": { "type": "Point", "coordinates": [ -156.443350966784493, 20.670459845167514 ] } },
{ "type": "Feature", "properties": { "objectid": 47, "fignum": 22, "name": "Po'olenalena Beach", "loc": "Keauhou, Makawao", "aname": " ", "siglevel": 0, "sigregion": 2, "beginner": "1-3", "intermedia": "3-5", "expert": " ", "surftype": " ", "hazcond": 0, "comments": " " }, "geometry": { "type": "Point", "coordinates": [ -156.442573444433577, 20.665541017527865 ] } },
{ "type": "Feature", "properties": { "objectid": 48, "fignum": 22, "name": "Wailea Beach", "loc": "Paeahu, Makawao", "aname": " ", "siglevel": 0, "sigregion": 2, "beginner": " ", "intermedia": "1-5", "expert": " ", "surftype": " ", "hazcond": 0, "comments": " " }, "geometry": { "type": "Point", "coordinates": [ -156.443593019624473, 20.683370523385495 ] } },
{ "type": "Feature", "properties": { "objectid": 49, "fignum": 22, "name": "Polo Beach", "loc": "Palauea, Makawao", "aname": " ", "siglevel": 0, "sigregion": 2, "beginner": " ", "intermedia": "1-5", "expert": " ", "surftype": " ", "hazcond": 0, "comments": " " }, "geometry": { "type": "Point", "coordinates": [ -156.443911646037861, 20.676084249688355 ] } },
{ "type": "Feature", "properties": { "objectid": 50, "fignum": 22, "name": "Mokapu Beach", "loc": "Paeahu, Makawao", "aname": " ", "siglevel": 0, "sigregion": 2, "beginner": " ", "intermedia": "1-5", "expert": " ", "surftype": " ", "hazcond": 0, "comments": " " }, "geometry": { "type": "Point", "coordinates": [ -156.444497418488254, 20.69310825895155 ] } },
{ "type": "Feature", "properties": { "objectid": 51, "fignum": 22, "name": "Ulua Beach", "loc": "Paeahu, Makawao", "aname": " ", "siglevel": 0, "sigregion": 2, "beginner": " ", "intermedia": "1-5", "expert": " ", "surftype": " ", "hazcond": 0, "comments": " " }, "geometry": { "type": "Point", "coordinates": [ -156.443928276639241, 20.690066048408163 ] } },
{ "type": "Feature", "properties": { "objectid": 52, "fignum": 22, "name": "Keawakapu Beach", "loc": "Paeahu, Makawao", "aname": " ", "siglevel": 0, "sigregion": 2, "beginner": " ", "intermedia": "1-5", "expert": " ", "surftype": " ", "hazcond": 0, "comments": " " }, "geometry": { "type": "Point", "coordinates": [ -156.445308207938808, 20.698266857757567 ] } },
{ "type": "Feature", "properties": { "objectid": 53, "fignum": 24, "name": "Awalua Beach", "loc": "Olowalu, Lahaina", "aname": " ", "siglevel": 3, "sigregion": 3, "beginner": "1-3", "intermedia": " ", "expert": " ", "surftype": " ", "hazcond": 0, "comments": " " }, "geometry": { "type": "Point", "coordinates": [ -156.631331385820005, 20.823031909759568 ] } },
{ "type": "Feature", "properties": { "objectid": 54, "fignum": 22, "name": "Kama'ole Beach III", "loc": "Kama'ole, Wailuku", "aname": " ", "siglevel": 0, "sigregion": 2, "beginner": " ", "intermedia": "1-5", "expert": " ", "surftype": " ", "hazcond": 0, "comments": " " }, "geometry": { "type": "Point", "coordinates": [ -156.446584761851454, 20.712646554815443 ] } },
{ "type": "Feature", "properties": { "objectid": 55, "fignum": 22, "name": "Kama'ole Beach II", "loc": "Kama'ole, Wailuku", "aname": " ", "siglevel": 0, "sigregion": 2, "beginner": " ", "intermedia": "1-5", "expert": " ", "surftype": " ", "hazcond": 0, "comments": " " }, "geometry": { "type": "Point", "coordinates": [ -156.4470001389912, 20.716494590444107 ] } },
{ "type": "Feature", "properties": { "objectid": 56, "fignum": 22, "name": "Kama'ole Beach I", "loc": "Kama'ole, Wailuku", "aname": " ", "siglevel": 0, "sigregion": 2, "beginner": " ", "intermedia": "1-5", "expert": " ", "surftype": " ", "hazcond": 0, "comments": " " }, "geometry": { "type": "Point", "coordinates": [ -156.448597754109727, 20.723028243086997 ] } },
{ "type": "Feature", "properties": { "objectid": 57, "fignum": 27, "name": "Papohaku Beach", "loc": "Kaluako'i", "aname": " ", "siglevel": 0, "sigregion": 3, "beginner": " ", "intermedia": "1-5", "expert": " ", "surftype": " ", "hazcond": 1, "comments": "Hazardous longshore currents" }, "geometry": { "type": "Point", "coordinates": [ -157.257637227743459, 21.171265316441787 ] } },
{ "type": "Feature", "properties": { "objectid": 58, "fignum": 27, "name": "Kepuhi Beach", "loc": "Kaluako'i", "aname": " ", "siglevel": 0, "sigregion": 3, "beginner": " ", "intermedia": "1-5", "expert": " ", "surftype": " ", "hazcond": 1, "comments": "Hazardous longshore currents" }, "geometry": { "type": "Point", "coordinates": [ -157.249520911261783, 21.184817090502239 ] } },
{ "type": "Feature", "properties": { "objectid": 59, "fignum": 29, "name": "Wailau", "loc": "Wailau", "aname": " ", "siglevel": 3, "sigregion": 4, "beginner": " ", "intermedia": "1-5", "expert": " ", "surftype": " ", "hazcond": 0, "comments": " " }, "geometry": { "type": "Point", "coordinates": [ -156.829433021783899, 21.165258884685915 ] } },
{ "type": "Feature", "properties": { "objectid": 60, "fignum": 29, "name": "Pelekunu", "loc": "Pelekunu Bay, Pelekunu", "aname": " ", "siglevel": 0, "sigregion": 2, "beginner": " ", "intermedia": "1-5", "expert": " ", "surftype": " ", "hazcond": 0, "comments": " " }, "geometry": { "type": "Point", "coordinates": [ -156.8814628214339, 21.161219036551309 ] } },
{ "type": "Feature", "properties": { "objectid": 61, "fignum": 28, "name": "'Awahua Beach", "loc": "Kalaupapa", "aname": " ", "siglevel": 3, "sigregion": 3, "beginner": " ", "intermedia": "1-5", "expert": " ", "surftype": " ", "hazcond": 0, "comments": " " }, "geometry": { "type": "Point", "coordinates": [ -156.985943251441142, 21.185498937332969 ] } },
{ "type": "Feature", "properties": { "objectid": 62, "fignum": 38, "name": "Tracks", "loc": "Kahe Beach, Honouliuli, 'Ewa", "aname": " ", "siglevel": 3, "sigregion": 4, "beginner": "1-3", "intermedia": "3-5", "expert": " ", "surftype": " ", "hazcond": 0, "comments": " " }, "geometry": { "type": "Point", "coordinates": [ -158.132463577540392, 21.360181566302579 ] } },
{ "type": "Feature", "properties": { "objectid": 63, "fignum": 38, "name": "Keaulana", "loc": "Pili o Kahe, Nanakuli, Wai'anae", "aname": " ", "siglevel": 0, "sigregion": 2, "beginner": " ", "intermedia": "1-5", "expert": " ", "surftype": " ", "hazcond": 0, "comments": " " }, "geometry": { "type": "Point", "coordinates": [ -158.138189543244124, 21.369941232381922 ] } },
{ "type": "Feature", "properties": { "objectid": 64, "fignum": 37, "name": "The Wall", "loc": "Waikiki, Honolulu", "aname": " ", "siglevel": 3, "sigregion": 4, "beginner": " ", "intermedia": "1-5", "expert": " ", "surftype": " ", "hazcond": 0, "comments": " " }, "geometry": { "type": "Point", "coordinates": [ -157.823178760917159, 21.271160804732187 ] } },
{ "type": "Feature", "properties": { "objectid": 65, "fignum": 37, "name": "Point Panic", "loc": "Kaka'ako, Honolulu", "aname": " ", "siglevel": 3, "sigregion": 4, "beginner": " ", "intermedia": "1-5", "expert": " ", "surftype": " ", "hazcond": 1, "comments": "Dangerous rocks and reef bottom" }, "geometry": { "type": "Point", "coordinates": [ -157.861170287653124, 21.290339336825465 ] } },
{ "type": "Feature", "properties": { "objectid": 66, "fignum": 33, "name": "Kahana Bay", "loc": "Kahana, Ko'olauloa", "aname": " ", "siglevel": 0, "sigregion": 2, "beginner": "1-3", "intermedia": "3-5", "expert": " ", "surftype": " ", "hazcond": 0, "comments": " " }, "geometry": { "type": "Point", "coordinates": [ -157.876156570751078, 21.557223910887338 ] } },
{ "type": "Feature", "properties": { "objectid": 67, "fignum": 40, "name": "Makua", "loc": "Makua Beach, Makua, Wai'anae", "aname": " ", "siglevel": 0, "sigregion": 2, "beginner": " ", "intermedia": "1-5", "expert": " ", "surftype": " ", "hazcond": 0, "comments": " " }, "geometry": { "type": "Point", "coordinates": [ -158.229629756242275, 21.531498527753097 ] } },
{ "type": "Feature", "properties": { "objectid": 68, "fignum": 40, "name": "Yokohama Bay", "loc": "Keawa'ula, Wai'anae", "aname": " ", "siglevel": 0, "sigregion": 2, "beginner": " ", "intermedia": "1-5", "expert": " ", "surftype": " ", "hazcond": 0, "comments": " " }, "geometry": { "type": "Point", "coordinates": [ -158.244810702381386, 21.550510042256864 ] } },
{ "type": "Feature", "properties": { "objectid": 69, "fignum": 35, "name": "Waimanalo Bay", "loc": "Waimanalo, Ko'olaupoko", "aname": " ", "siglevel": 3, "sigregion": 4, "beginner": "1-3", "intermedia": "3-5", "expert": " ", "surftype": "shorebreak", "hazcond": 0, "comments": "Bellows safer, Sherwood F. sharp dropoff" }, "geometry": { "type": "Point", "coordinates": [ -157.702093283483975, 21.345406485733808 ] } },
{ "type": "Feature", "properties": { "objectid": 70, "fignum": 35, "name": "Makapu'u", "loc": "Makapu'u Beach, Waimanalo, Ko'olaupoko", "aname": " ", "siglevel": 3, "sigregion": 4, "beginner": " ", "intermedia": "1-5", "expert": " ", "surftype": " ", "hazcond": 0, "comments": " " }, "geometry": { "type": "Point", "coordinates": [ -157.660302311550794, 21.311360360629465 ] } },
{ "type": "Feature", "properties": { "objectid": 71, "fignum": 36, "name": "Sandy Beach", "loc": "Maunalua, Honolulu", "aname": " ", "siglevel": 3, "sigregion": 4, "beginner": " ", "intermedia": "1-5", "expert": " ", "surftype": " ", "hazcond": 0, "comments": " " }, "geometry": { "type": "Point", "coordinates": [ -157.673059899143112, 21.285581386409692 ] } },
{ "type": "Feature", "properties": { "objectid": 72, "fignum": 32, "name": "Malaekahana Bay", "loc": "Malaekahana & La'ie, Ko'olauloa", "aname": " ", "siglevel": 3, "sigregion": 3, "beginner": "1-3", "intermedia": "3-5", "expert": " ", "surftype": " ", "hazcond": 0, "comments": " " }, "geometry": { "type": "Point", "coordinates": [ -157.936856916885972, 21.671022967125047 ] } },
{ "type": "Feature", "properties": { "objectid": 73, "fignum": 32, "name": "Hukilau", "loc": "La'ie Beach, La'ie, Ko'olauloa", "aname": " ", "siglevel": 0, "sigregion": 2, "beginner": "1-3", "intermedia": " ", "expert": " ", "surftype": " ", "hazcond": 0, "comments": " " }, "geometry": { "type": "Point", "coordinates": [ -157.928695479777019, 21.654967943713146 ] } },
{ "type": "Feature", "properties": { "objectid": 74, "fignum": 32, "name": "Pounders", "loc": "La'ie, Ko'olauloa", "aname": " ", "siglevel": 0, "sigregion": 2, "beginner": " ", "intermedia": "1-5", "expert": " ", "surftype": " ", "hazcond": 0, "comments": " " }, "geometry": { "type": "Point", "coordinates": [ -157.920425826738636, 21.633066348688569 ] } },
{ "type": "Feature", "properties": { "objectid": 75, "fignum": 32, "name": "Kokololio Beach", "loc": "Laie, Ko'olauloa", "aname": "Mahakea Beach & Kakela Beach", "siglevel": 0, "sigregion": 2, "beginner": "1-3", "intermedia": " ", "expert": " ", "surftype": " ", "hazcond": 0, "comments": " " }, "geometry": { "type": "Point", "coordinates": [ -157.920703032100619, 21.625990126204446 ] } },
{ "type": "Feature", "properties": { "objectid": 76, "fignum": 34, "name": "North Beach", "loc": "He'eia & Kane'ohe, Ko'olaupoko", "aname": " ", "siglevel": 3, "sigregion": 4, "beginner": " ", "intermedia": "1-5", "expert": " ", "surftype": " ", "hazcond": 0, "comments": " " }, "geometry": { "type": "Point", "coordinates": [ -157.752042646371649, 21.455610452594257 ] } },
{ "type": "Feature", "properties": { "objectid": 77, "fignum": 34, "name": "Kailua Beach", "loc": "Kailua, Ko'olaupoko", "aname": " ", "siglevel": 3, "sigregion": 4, "beginner": "1-3", "intermedia": "3-5", "expert": " ", "surftype": " ", "hazcond": 0, "comments": " " }, "geometry": { "type": "Point", "coordinates": [ -157.7400926981758, 21.406605597224829 ] } },
{ "type": "Feature", "properties": { "objectid": 78, "fignum": 39, "name": "Turtle Beach", "loc": "Papaoneone Beach, Makaha, Wai'anae", "aname": " ", "siglevel": 0, "sigregion": 1, "beginner": " ", "intermedia": "1-5", "expert": " ", "surftype": " ", "hazcond": 0, "comments": " " }, "geometry": { "type": "Point", "coordinates": [ -158.213090953671269, 21.462104064934369 ] } },
{ "type": "Feature", "properties": { "objectid": 79, "fignum": 38, "name": "Ulehawa Beach", "loc": "Lualualei, Wai'anae", "aname": " ", "siglevel": 3, "sigregion": 2, "beginner": " ", "intermedia": "1-5", "expert": " ", "surftype": " ", "hazcond": 0, "comments": " " }, "geometry": { "type": "Point", "coordinates": [ -158.15967017552552, 21.393403219712756 ] } },
{ "type": "Feature", "properties": { "objectid": 80, "fignum": 39, "name": "Makaha", "loc": "Makaha Beach, Makaha, Wai'anae", "aname": " ", "siglevel": 3, "sigregion": 3, "beginner": " ", "intermedia": "1-5", "expert": " ", "surftype": " ", "hazcond": 0, "comments": " " }, "geometry": { "type": "Point", "coordinates": [ -158.220920112485999, 21.476926130780207 ] } },
{ "type": "Feature", "properties": { "objectid": 81, "fignum": 31, "name": "Waimea Bay", "loc": "Waimea, Waialua", "aname": " ", "siglevel": 0, "sigregion": 2, "beginner": " ", "intermedia": "1-3", "expert": "3-10", "surftype": " ", "hazcond": 0, "comments": " " }, "geometry": { "type": "Point", "coordinates": [ -158.064184802628859, 21.640411425562174 ] } },
{ "type": "Feature", "properties": { "objectid": 82, "fignum": 31, "name": "Banzai Pipeline", "loc": "Pupukea, Ko'olauloa", "aname": " ", "siglevel": 3, "sigregion": 4, "beginner": " ", "intermedia": " ", "expert": "1-10", "surftype": " ", "hazcond": 0, "comments": " " }, "geometry": { "type": "Point", "coordinates": [ -158.052254975624976, 21.665140918448188 ] } },
{ "type": "Feature", "properties": { "objectid": 83, "fignum": 31, "name": "'Ehukai", "loc": "Pupukea, Ko'olauloa", "aname": " ", "siglevel": 0, "sigregion": 4, "beginner": " ", "intermedia": "1-5", "expert": " ", "surftype": " ", "hazcond": 0, "comments": " " }, "geometry": { "type": "Point", "coordinates": [ -158.051529486074287, 21.665796297950436 ] } }
]
}
