{ "type": "FeatureCollection", "features": [
{"type":"Feature","geometry":{"type":"Point","coordinates":[-158.086579683501,21.6174025027414]},"properties":{":id":"row-96tu_74x4.zw9z",":version":"rv-ghni_sqgv.5f3p",":created_at":"2026-07-01T17:05:43.144Z",":updated_at":"2026-07-01T17:05:43.386Z","comment_":"Tower 30B","objectid":"46","parkid":"0","pointtype":"1","towerid":"30b",":@computed_region_7asa_3qps":"5980"}},
{"type":"Feature","geometry":{"type":"Point","coordinates":[-157.743058527751,21.4538136336692]},"properties":{":id":"row-wjc9~ims9~8v9x",":version":"rv-7iw6.ffiu~ffq3",":created_at":"2026-07-01T17:05:43.144Z",":updated_at":"2026-07-01T17:05:43.386Z","comment_":"KBMCB North Beach: North Tower","objectid":"41","parkid":"0","pointtype":"0","towerid":"MIL KBMCB NB",":@computed_region_7asa_3qps":"6433"}},
{"type":"Feature","geometry":{"type":"Point","coordinates":[-158.141552137447,21.3768193201617]},"properties":{":id":"row-u53c~csnb-t74f",":version":"rv-iwn5~zsrb_v7ey",":created_at":"2026-07-01T17:05:43.144Z",":updated_at":"2026-07-01T17:05:43.386Z","comment_":"T41 TOWER NANAKULI BEACH PARK","objectid":"36","parkid":"0","pointtype":"1","towerid":"41",":@computed_region_7asa_3qps":"6856"}},
{"type":"Feature","geometry":{"type":"Point","coordinates":[-157.82600490728,21.2756605285825]},"properties":{":id":"row-hjz8.9ewc-uxxm",":version":"rv-j3rg.8ema_ghv8",":created_at":"2026-07-01T17:05:43.144Z",":updated_at":"2026-07-01T17:05:43.386Z","comment_":"2 BRAVO TOWER","objectid":"4","parkid":"56","pointtype":"1","towerid":"2b",":@computed_region_7asa_3qps":"7521"}},
{"type":"Feature","geometry":{"type":"Point","coordinates":[-158.147245531735,21.3826897417993]},"properties":{":id":"row-52k2.6zsw-6wx3",":version":"rv-pbrd_hdmf_b3bv",":created_at":"2026-07-01T17:05:43.144Z",":updated_at":"2026-07-01T17:05:43.386Z","comment_":"DEPOTS BEACH","objectid":"22","parkid":"0","pointtype":"1","towerid":"42",":@computed_region_7asa_3qps":"6856"}},
{"type":"Feature","geometry":{"type":"Point","coordinates":[-157.67339468507,21.2857963198293]},"properties":{":id":"row-uv83_v8he_i9af",":version":"rv-qhv3-9fi8.5jye",":created_at":"2026-07-01T17:05:43.144Z",":updated_at":"2026-07-01T17:05:43.386Z","comment_":"SANDY BEACH SHOREBREAK","objectid":"9","parkid":"197","pointtype":"1","towerid":"4a",":@computed_region_7asa_3qps":"7528"}},
{"type":"Feature","geometry":{"type":"Point","coordinates":[-158.179012209523,21.424016843914]},"properties":{":id":"row-4ujf-uich.m8ud",":version":"rv-kj92-32t5~bt4n",":created_at":"2026-07-01T17:05:43.144Z",":updated_at":"2026-07-01T17:05:43.386Z","comment_":"43 ALPHA MAILI","objectid":"21","parkid":"0","pointtype":"1","towerid":"43a",":@computed_region_7asa_3qps":"6856"}},
{"type":"Feature","geometry":{"type":"Point","coordinates":[-157.709752393496,21.3641310756473]},"properties":{":id":"row-h8zt-qtny~36ej",":version":"rv-fd8d_zxdi-sdpv",":created_at":"2026-07-01T17:05:43.144Z",":updated_at":"2026-07-01T17:05:43.386Z","comment_":"BELLOWS BEACH","objectid":"32","parkid":"0","pointtype":"1","towerid":"7",":@computed_region_7asa_3qps":"6858"}},
{"type":"Feature","geometry":{"type":"Point","coordinates":[-157.849612402999,21.2893950844489]},"properties":{":id":"row-t8mu-s2am-zdyy",":version":"rv-dyz9_7via_9kct",":created_at":"2026-07-01T17:05:43.144Z",":updated_at":"2026-07-01T17:05:43.386Z","comment_":"1 CHARLIE ALA MOANA","objectid":"26","parkid":"0","pointtype":"1","towerid":"1c",":@computed_region_7asa_3qps":"7520"}},
{"type":"Feature","geometry":{"type":"Point","coordinates":[-158.222553255144,21.4784556913125]},"properties":{":id":"row-ytnu~eya2-weqf",":version":"rv-23iv.u96z-j89i",":created_at":"2026-07-01T17:05:43.144Z",":updated_at":"2026-07-01T17:05:43.386Z","comment_":"47 BRAVO MAKAHA","objectid":"17","parkid":"0","pointtype":"1","towerid":"47b",":@computed_region_7asa_3qps":"6856"}},
{"type":"Feature","geometry":{"type":"Point","coordinates":[-158.080885300023,21.6234302704882]},"properties":{":id":"row-kskw-h4ws.kxxq",":version":"rv-wem2~mfgx_f976",":created_at":"2026-07-01T17:05:43.144Z",":updated_at":"2026-07-01T17:05:43.386Z","comment_":"Tower 30A","objectid":"45","parkid":"0","pointtype":"1","towerid":"30a",":@computed_region_7asa_3qps":"5980"}},
{"type":"Feature","geometry":{"type":"Point","coordinates":[-157.709365989188,21.3679969903003]},"properties":{":id":"row-ma9j-xyi2.b8uq",":version":"rv-3meu.pgpr_cmtv",":created_at":"2026-07-01T17:05:43.144Z",":updated_at":"2026-07-01T17:05:43.386Z","comment_":"Bellow Beach Tower-2","objectid":"40","parkid":"0","pointtype":"0","towerid":"MIL BELLO 2",":@computed_region_7asa_3qps":"6858"}},
{"type":"Feature","geometry":{"type":"Point","coordinates":[-158.220440459678,21.4772058378455]},"properties":{":id":"row-avpg~7du3~akjw",":version":"rv-5qur.mehy~tq3e",":created_at":"2026-07-01T17:05:43.144Z",":updated_at":"2026-07-01T17:05:43.386Z","comment_":"47 ALPHA MAKAHA","objectid":"18","parkid":"0","pointtype":"1","towerid":"47a",":@computed_region_7asa_3qps":"6856"}},
{"type":"Feature","geometry":{"type":"Point","coordinates":[-157.660718148483,21.3113460468193]},"properties":{":id":"row-9jqq.9tkr_z2tu",":version":"rv-xbuv~xq8e_i6w8",":created_at":"2026-07-01T17:05:43.144Z",":updated_at":"2026-07-01T17:05:43.386Z","comment_":"MAKAPUU TOWER","objectid":"8","parkid":"41","pointtype":"1","towerid":"5",":@computed_region_7asa_3qps":"6858"}},
{"type":"Feature","geometry":{"type":"Point","coordinates":[-157.847084048825,21.2884296080819]},"properties":{":id":"row-5y8c_wrdh.6zsa",":version":"rv-gysr~bn5p-g7r5",":created_at":"2026-07-01T17:05:43.144Z",":updated_at":"2026-07-01T17:05:43.386Z","comment_":"1 DELTA ALA MOANA","objectid":"25","parkid":"0","pointtype":"1","towerid":"1d",":@computed_region_7asa_3qps":"7520"}},
{"type":"Feature","geometry":{"type":"Point","coordinates":[-158.039904792674,21.6747024501457]},"properties":{":id":"row-dac3_hmtf-3i8b",":version":"rv-2ema~8fbd.r4wp",":created_at":"2026-07-01T17:05:43.144Z",":updated_at":"2026-07-01T17:05:43.386Z","comment_":"SUNSET BEACH","objectid":"13","parkid":"0","pointtype":"1","towerid":"25",":@computed_region_7asa_3qps":"5980"}},
{"type":"Feature","geometry":{"type":"Point","coordinates":[-158.045274718306,21.3041805557128]},"properties":{":id":"row-inw4-a4my.y8h3",":version":"rv-jsm3_x73y-tjnn",":created_at":"2026-07-01T17:05:43.144Z",":updated_at":"2026-07-01T17:05:43.386Z","comment_":"BARBERS PT MILITARY","objectid":"37","parkid":"0","pointtype":"0","towerid":"MIL BARBERS",":@computed_region_7asa_3qps":"5977"}},
{"type":"Feature","geometry":{"type":"Point","coordinates":[-157.835163437457,21.5107322161523]},"properties":{":id":"row-i4b3_2jp7-fxw6",":version":"rv-55hg~qfft_45dr",":created_at":"2026-07-01T17:05:43.144Z",":updated_at":"2026-07-01T17:05:43.386Z","comment_":"KUALOA BEACH PARK","objectid":"33","parkid":"0","pointtype":"1","towerid":"9",":@computed_region_7asa_3qps":"6440"}},
{"type":"Feature","geometry":{"type":"Point","coordinates":[-157.72621532702,21.3978224983114]},"properties":{":id":"row-gzyz.2xjc.3nzx",":version":"rv-djhj_37jj.cd2q",":created_at":"2026-07-01T17:05:43.144Z",":updated_at":"2026-07-01T17:05:43.386Z","comment_":"KAILUA BEACH TOWER","objectid":"5","parkid":"18","pointtype":"1","towerid":"8",":@computed_region_7asa_3qps":"6433"}},
{"type":"Feature","geometry":{"type":"Point","coordinates":[-157.836247709264,21.2802084444734]},"properties":{":id":"row-y6vx_phsc_jq3t",":version":"rv-63k6~x5ti_nfsp",":created_at":"2026-07-01T17:05:43.144Z",":updated_at":"2026-07-01T17:05:43.386Z","comment_":"T-2 Fort Derrusy Waikiki","objectid":"44","parkid":"0","pointtype":"0","towerid":"MIL FT DER 2",":@computed_region_7asa_3qps":"7521"}},
{"type":"Feature","geometry":{"type":"Point","coordinates":[-158.055075423968,21.6608609839907]},"properties":{":id":"row-qt27.968f-t258",":version":"rv-r2cb-e7qd~qr9p",":created_at":"2026-07-01T17:05:43.144Z",":updated_at":"2026-07-01T17:05:43.386Z","comment_":"KAWAENA","objectid":"14","parkid":"0","pointtype":"1","towerid":"27",":@computed_region_7asa_3qps":"5980"}},
{"type":"Feature","geometry":{"type":"Point","coordinates":[-158.050928819885,21.665363759244]},"properties":{":id":"row-c4rr-xvvk~wnb6",":version":"rv-ehfy_ixj3~jity",":created_at":"2026-07-01T17:05:43.144Z",":updated_at":"2026-07-01T17:05:43.386Z","comment_":"EHUKAI BEACH PARK","objectid":"12","parkid":"0","pointtype":"1","towerid":"26",":@computed_region_7asa_3qps":"5980"}},
{"type":"Feature","geometry":{"type":"Point","coordinates":[-157.821774691801,21.2635339582072]},"properties":{":id":"row-4znx.anav-swgq",":version":"rv-n7f6_5z5a.pgak",":created_at":"2026-07-01T17:05:43.144Z",":updated_at":"2026-07-01T17:05:43.386Z","comment_":"2 HOTEL TOWER","objectid":"1","parkid":"0","pointtype":"1","towerid":"2h",":@computed_region_7asa_3qps":"7521"}},
{"type":"Feature","geometry":{"type":"Point","coordinates":[-157.823537735007,21.2724751647634]},"properties":{":id":"row-q9ay.t3cy_2gy8",":version":"rv-tsm8-xc8s_q6us",":created_at":"2026-07-01T17:05:43.144Z",":updated_at":"2026-07-01T17:05:43.386Z","comment_":"2 DELTA WAIKIKI","objectid":"29","parkid":"0","pointtype":"1","towerid":"2d",":@computed_region_7asa_3qps":"7521"}},
{"type":"Feature","geometry":{"type":"Point","coordinates":[-157.846074385112,21.2872404192943]},"properties":{":id":"row-jhcv.tjr7~f9s4",":version":"rv-hbs7.jkix_hgys",":created_at":"2026-07-01T17:05:43.144Z",":updated_at":"2026-07-01T17:05:43.386Z","comment_":"1 ECHO ALA MOANA","objectid":"24","parkid":"0","pointtype":"1","towerid":"1e",":@computed_region_7asa_3qps":"7520"}},
{"type":"Feature","geometry":{"type":"Point","coordinates":[-157.822719465328,21.2700317213232]},"properties":{":id":"row-ijbg-quju.4hui",":version":"rv-ivfi-w826.fppg",":created_at":"2026-07-01T17:05:43.144Z",":updated_at":"2026-07-01T17:05:43.386Z","comment_":"2 ECHO TOWER","objectid":"2","parkid":"0","pointtype":"1","towerid":"2e",":@computed_region_7asa_3qps":"7521"}},
{"type":"Feature","geometry":{"type":"Point","coordinates":[-158.190184073036,21.4415808025096]},"properties":{":id":"row-uztv.v9mq~vwxa",":version":"rv-3pqc~ihc8.8m24",":created_at":"2026-07-01T17:05:43.144Z",":updated_at":"2026-07-01T17:05:43.386Z","comment_":"45 ALPHA  POKAI BAY","objectid":"19","parkid":"0","pointtype":"1","towerid":"45a",":@computed_region_7asa_3qps":"6856"}},
{"type":"Feature","geometry":{"type":"Point","coordinates":[-158.189774165631,21.446430509817]},"properties":{":id":"row-xqzn-tm7u.wycr",":version":"rv-x4dp_rsdw_b4xx",":created_at":"2026-07-01T17:05:43.144Z",":updated_at":"2026-07-01T17:05:43.386Z","comment_":"REST CAMP PILILAAU MILITARY","objectid":"34","parkid":"0","pointtype":"0","towerid":"MIL REST CMP",":@computed_region_7asa_3qps":"6856"}},
{"type":"Feature","geometry":{"type":"Point","coordinates":[-157.707899334142,21.3723469767268]},"properties":{":id":"row-2fb7_e962-js3k",":version":"rv-y9xt.ke4f_cehc",":created_at":"2026-07-01T17:05:43.144Z",":updated_at":"2026-07-01T17:05:43.386Z","comment_":"Bellow Beach Tower-1","objectid":"39","parkid":"0","pointtype":"0","towerid":"MIL BELLOW 1",":@computed_region_7asa_3qps":"6858"}},
{"type":"Feature","geometry":{"type":"Point","coordinates":[-157.693488457375,21.3320717884134]},"properties":{":id":"row-xx5c-uvar~ucz8",":version":"rv-aqkz_vdqh~xcck",":created_at":"2026-07-01T17:05:43.144Z",":updated_at":"2026-07-01T17:05:43.386Z","comment_":"WAIMANALO 6 BRAVO","objectid":"7","parkid":"43","pointtype":"1","towerid":"6b",":@computed_region_7asa_3qps":"6858"}},
{"type":"Feature","geometry":{"type":"Point","coordinates":[-157.835136612087,21.2788751169613]},"properties":{":id":"row-4ccu.9gi4.wvds",":version":"rv-eifn_5gcz.szt7",":created_at":"2026-07-01T17:05:43.144Z",":updated_at":"2026-07-01T17:05:43.386Z","comment_":"T-1 Fort Derrusy Waikiki","objectid":"43","parkid":"0","pointtype":"0","towerid":"MIL FT DER 1",":@computed_region_7asa_3qps":"7521"}},
{"type":"Feature","geometry":{"type":"Point","coordinates":[-157.696295447474,21.272062983195]},"properties":{":id":"row-5vwp.x67a-72vc",":version":"rv-rswz_fpkj-yxui",":created_at":"2026-07-01T17:05:43.144Z",":updated_at":"2026-07-01T17:05:43.386Z","comment_":"3 BRAVO TOWER","objectid":"11","parkid":"34","pointtype":"1","towerid":"3b",":@computed_region_7asa_3qps":"7528"}},
{"type":"Feature","geometry":{"type":"Point","coordinates":[-157.824178258524,21.2737394927963]},"properties":{":id":"row-siv8-3gmz~92dc",":version":"rv-mtmn-fzue~qydc",":created_at":"2026-07-01T17:05:43.144Z",":updated_at":"2026-07-01T17:05:43.386Z","comment_":"2 CHARLIE WAIKIKI","objectid":"28","parkid":"0","pointtype":"1","towerid":"2c",":@computed_region_7asa_3qps":"7521"}},
{"type":"Feature","geometry":{"type":"Point","coordinates":[-157.822785879664,21.268241542753]},"properties":{":id":"row-amyv-em67~w4ws",":version":"rv-w59i-5ru7-sd32",":created_at":"2026-07-01T17:05:43.144Z",":updated_at":"2026-07-01T17:05:43.386Z","comment_":"2 FOXTROT WAIKIKI","objectid":"30","parkid":"0","pointtype":"1","towerid":"2f",":@computed_region_7asa_3qps":"7521"}},
{"type":"Feature","geometry":{"type":"Point","coordinates":[-158.063176586153,21.6399943275434]},"properties":{":id":"row-qvky~6ce3-wun2",":version":"rv-mkga_rwx6_ikqh",":created_at":"2026-07-01T17:05:43.144Z",":updated_at":"2026-07-01T17:05:43.386Z","comment_":"WAIMEA BAY","objectid":"15","parkid":"0","pointtype":"1","towerid":"29",":@computed_region_7asa_3qps":"5980"}},
{"type":"Feature","geometry":{"type":"Point","coordinates":[-158.178135305513,21.4200415768322]},"properties":{":id":"row-skdx_mbqy.hgcm",":version":"rv-fe84-zcvq~5q62",":created_at":"2026-07-01T17:05:43.144Z",":updated_at":"2026-07-01T17:05:43.386Z","comment_":"T43 MOBILE OPS","objectid":"35","parkid":"0","pointtype":"1","towerid":"43",":@computed_region_7asa_3qps":"6856"}},
{"type":"Feature","geometry":{"type":"Point","coordinates":[-157.827535053009,21.276487563382]},"properties":{":id":"row-4fxk-3qki-pa2h",":version":"rv-7k8h.yj6i~hhd4",":created_at":"2026-07-01T17:05:43.144Z",":updated_at":"2026-07-01T17:05:43.386Z","comment_":"2 ALPHA TOWER","objectid":"3","parkid":"56","pointtype":"1","towerid":"2a",":@computed_region_7asa_3qps":"7521"}},
{"type":"Feature","geometry":{"type":"Point","coordinates":[-157.702060217869,21.3446401393632]},"properties":{":id":"row-9i6s.7j2s-ak2n",":version":"rv-kwnj~75xc~w8y2",":created_at":"2026-07-01T17:05:43.144Z",":updated_at":"2026-07-01T17:05:43.386Z","comment_":"WAIMANALO BEACH PARK","objectid":"6","parkid":"43","pointtype":"1","towerid":"6a",":@computed_region_7asa_3qps":"6858"}},
{"type":"Feature","geometry":{"type":"Point","coordinates":[-158.241835381501,21.5487806976168]},"properties":{":id":"row-4u5n~6cus_k5h6",":version":"rv-yxsy~hpzj_g4up",":created_at":"2026-07-01T17:05:43.144Z",":updated_at":"2026-07-01T17:05:43.386Z","comment_":"KEAWAULA BEACH PARK","objectid":"20","parkid":"0","pointtype":"1","towerid":"50",":@computed_region_7asa_3qps":"6856"}},
{"type":"Feature","geometry":{"type":"Point","coordinates":[-157.85372820788,21.2907348033173]},"properties":{":id":"row-scrm-2rs4.bxzz",":version":"rv-md9d_dfpv~k9e5",":created_at":"2026-07-01T17:05:43.144Z",":updated_at":"2026-07-01T17:05:43.386Z","comment_":"1 BRAVO ALA MOANA","objectid":"23","parkid":"0","pointtype":"1","towerid":"1b",":@computed_region_7asa_3qps":"7520"}},
{"type":"Feature","geometry":{"type":"Point","coordinates":[-158.194663049923,21.4488471763256]},"properties":{":id":"row-wptd-rbs5.76m3",":version":"rv-nvvj_s9sx_tufq",":created_at":"2026-07-01T17:05:43.144Z",":updated_at":"2026-07-01T17:05:43.386Z","comment_":"SUB 4 PILILAAU REC AREA MIL","objectid":"38","parkid":"0","pointtype":"0","towerid":"MIL SUB4",":@computed_region_7asa_3qps":"6856"}},
{"type":"Feature","geometry":{"type":"Point","coordinates":[-157.697027446984,21.2710514941997]},"properties":{":id":"row-z3yk.jswn-nzmc",":version":"rv-fuze~yrpz.qbdz",":created_at":"2026-07-01T17:05:43.144Z",":updated_at":"2026-07-01T17:05:43.386Z","comment_":"3 ALPHA TOWER","objectid":"10","parkid":"34","pointtype":"1","towerid":"3a",":@computed_region_7asa_3qps":"7528"}},
{"type":"Feature","geometry":{"type":"Point","coordinates":[-158.107913835191,21.594198973281]},"properties":{":id":"row-mk3c~tazf_6mix",":version":"rv-g73k_3a49-xiy8",":created_at":"2026-07-01T17:05:43.144Z",":updated_at":"2026-07-01T17:05:43.386Z","comment_":"HALEIWA BEACH","objectid":"16","parkid":"0","pointtype":"1","towerid":"31",":@computed_region_7asa_3qps":"5980"}},
{"type":"Feature","geometry":{"type":"Point","coordinates":[-157.846809936676,21.2837651670631]},"properties":{":id":"row-zrbp_2hms~kxsx",":version":"rv-cyz6-9p53-csd6",":created_at":"2026-07-01T17:05:43.144Z",":updated_at":"2026-07-01T17:05:43.386Z","comment_":"1G ALA MOANA","objectid":"27","parkid":"0","pointtype":"1","towerid":"1g",":@computed_region_7asa_3qps":"7520"}},
{"type":"Feature","geometry":{"type":"Point","coordinates":[-157.764018284834,21.4603636481914]},"properties":{":id":"row-c8iu_i8hp_5v84",":version":"rv-w5ws.n9dm~s6yh",":created_at":"2026-07-01T17:05:43.144Z",":updated_at":"2026-07-01T17:05:43.386Z","comment_":"KBMCB Pyramid Rock Beach: Pyr*","objectid":"42","parkid":"0","pointtype":"0","towerid":"MIL KBMCB PR",":@computed_region_7asa_3qps":"6433"}},
{"type":"Feature","geometry":{"type":"Point","coordinates":[-157.67146198877,21.285919697898]},"properties":{":id":"row-wp9r-x3ef-6u6q",":version":"rv-wndi_bcia-chqv",":created_at":"2026-07-01T17:05:43.144Z",":updated_at":"2026-07-01T17:05:43.386Z","comment_":"4 BRAVO SANDY BEACH","objectid":"31","parkid":"0","pointtype":"1","towerid":"4b",":@computed_region_7asa_3qps":"7528"}}
] }
