{
"type": "FeatureCollection",
"name": "ocean_rescue_accessibility",
"crs": { "type": "name", "properties": { "name": "urn:ogc:def:crs:OGC:1.3:CRS84" } },
"features": [
{ "type": "Feature", "properties": { "objectid": 62, "fignum": 38, "name": "Tracks", "loc": "Kahe Beach, Honouliuli, 'Ewa", "aname": " ", "siglevel": 3, "sigregion": 4, "beginner": "1-3", "intermedia": "3-5", "expert": " ", "surftype": " ", "hazcond": 0, "comments": " ", "lifeguard_distance_km": 2.0686917137893821, "lifeguard_time_min": 24.824300565472583, "lifeguard_category": "20+ min", "swim_distance_km": 0.091103976346523605, "swim_time_min": 2.7331192903957082, "swim_category": "0-5 min" }, "geometry": { "type": "Point", "coordinates": [ -158.132463577540392, 21.360181566302572 ] } },
{ "type": "Feature", "properties": { "objectid": 63, "fignum": 38, "name": "Keaulana", "loc": "Pili o Kahe, Nanakuli, Wai'anae", "aname": " ", "siglevel": 0, "sigregion": 2, "beginner": " ", "intermedia": "1-5", "expert": " ", "surftype": " ", "hazcond": 0, "comments": " ", "lifeguard_distance_km": 0.8373516319031612, "lifeguard_time_min": 10.048219582837936, "lifeguard_category": "10-20 min", "swim_distance_km": 1.2015156431430871, "swim_time_min": 36.045469294292616, "swim_category": "20+ min" }, "geometry": { "type": "Point", "coordinates": [ -158.138189543244124, 21.369941232381922 ] } },
{ "type": "Feature", "properties": { "objectid": 64, "fignum": 37, "name": "The Wall", "loc": "Waikiki, Honolulu", "aname": " ", "siglevel": 3, "sigregion": 4, "beginner": " ", "intermedia": "1-5", "expert": " ", "surftype": " ", "hazcond": 0, "comments": " ", "lifeguard_distance_km": 0.13376309329659575, "lifeguard_time_min": 1.605157119559149, "lifeguard_category": "0-5 min", "swim_distance_km": 0.14151904216683911, "swim_time_min": 4.2455712650051733, "swim_category": "0-5 min" }, "geometry": { "type": "Point", "coordinates": [ -157.823178760917159, 21.271160804732187 ] } },
{ "type": "Feature", "properties": { "objectid": 65, "fignum": 37, "name": "Point Panic", "loc": "Kaka'ako, Honolulu", "aname": " ", "siglevel": 3, "sigregion": 4, "beginner": " ", "intermedia": "1-5", "expert": " ", "surftype": " ", "hazcond": 1, "comments": "Dangerous rocks and reef bottom", "lifeguard_distance_km": 0.77331399135186296, "lifeguard_time_min": 9.2797678962223564, "lifeguard_category": "5-10 min", "swim_distance_km": 0.28751328743970567, "swim_time_min": 8.6253986231911703, "swim_category": "5-10 min" }, "geometry": { "type": "Point", "coordinates": [ -157.861170287653124, 21.290339336825465 ] } },
{ "type": "Feature", "properties": { "objectid": 66, "fignum": 33, "name": "Kahana Bay", "loc": "Kahana, Ko'olauloa", "aname": " ", "siglevel": 0, "sigregion": 2, "beginner": "1-3", "intermedia": "3-5", "expert": " ", "surftype": " ", "hazcond": 0, "comments": " ", "lifeguard_distance_km": 6.6718705824197402, "lifeguard_time_min": 80.062446989036886, "lifeguard_category": "20+ min", "swim_distance_km": 0.14117585106597663, "swim_time_min": 4.2352755319792994, "swim_category": "0-5 min" }, "geometry": { "type": "Point", "coordinates": [ -157.876156570751078, 21.55722391088733 ] } },
{ "type": "Feature", "properties": { "objectid": 67, "fignum": 40, "name": "Makua", "loc": "Makua Beach, Makua, Wai'anae", "aname": " ", "siglevel": 0, "sigregion": 2, "beginner": " ", "intermedia": "1-5", "expert": " ", "surftype": " ", "hazcond": 0, "comments": " ", "lifeguard_distance_km": 2.2928158435101671, "lifeguard_time_min": 27.513790122122003, "lifeguard_category": "20+ min", "swim_distance_km": 0.62179225693648765, "swim_time_min": 18.65376770809463, "swim_category": "10-20 min" }, "geometry": { "type": "Point", "coordinates": [ -158.229629756242275, 21.53149852775309 ] } },
{ "type": "Feature", "properties": { "objectid": 68, "fignum": 40, "name": "Yokohama Bay", "loc": "Keawa'ula, Wai'anae", "aname": " ", "siglevel": 0, "sigregion": 2, "beginner": " ", "intermedia": "1-5", "expert": " ", "surftype": " ", "hazcond": 0, "comments": " ", "lifeguard_distance_km": 0.36272000480971911, "lifeguard_time_min": 4.3526400577166298, "lifeguard_category": "0-5 min", "swim_distance_km": 0.38686188098665902, "swim_time_min": 11.60585642959977, "swim_category": "10-20 min" }, "geometry": { "type": "Point", "coordinates": [ -158.244810702381386, 21.55051004225686 ] } },
{ "type": "Feature", "properties": { "objectid": 69, "fignum": 35, "name": "Waimanalo Bay", "loc": "Waimanalo, Ko'olaupoko", "aname": " ", "siglevel": 3, "sigregion": 4, "beginner": "1-3", "intermedia": "3-5", "expert": " ", "surftype": "shorebreak", "hazcond": 0, "comments": "Bellows safer, Sherwood F. sharp dropoff", "lifeguard_distance_km": 0.084905384954598775, "lifeguard_time_min": 1.0188646194551851, "lifeguard_category": "0-5 min", "swim_distance_km": 0.12447704461281683, "swim_time_min": 3.7343113383845052, "swim_category": "0-5 min" }, "geometry": { "type": "Point", "coordinates": [ -157.702093283483975, 21.345406485733808 ] } },
{ "type": "Feature", "properties": { "objectid": 70, "fignum": 35, "name": "Makapu'u", "loc": "Makapu'u Beach, Waimanalo, Ko'olaupoko", "aname": " ", "siglevel": 3, "sigregion": 4, "beginner": " ", "intermedia": "1-5", "expert": " ", "surftype": " ", "hazcond": 0, "comments": " ", "lifeguard_distance_km": 0.043166563703613284, "lifeguard_time_min": 0.51799876444335946, "lifeguard_category": "0-5 min", "swim_distance_km": 0.2194424901156552, "swim_time_min": 6.5832747034696562, "swim_category": "5-10 min" }, "geometry": { "type": "Point", "coordinates": [ -157.660302311550794, 21.311360360629461 ] } },
{ "type": "Feature", "properties": { "objectid": 71, "fignum": 36, "name": "Sandy Beach", "loc": "Maunalua, Honolulu", "aname": " ", "siglevel": 3, "sigregion": 4, "beginner": " ", "intermedia": "1-5", "expert": " ", "surftype": " ", "hazcond": 0, "comments": " ", "lifeguard_distance_km": 0.042103270042542655, "lifeguard_time_min": 0.50523924051051183, "lifeguard_category": "0-5 min", "swim_distance_km": 0.43939937774301707, "swim_time_min": 13.181981332290512, "swim_category": "10-20 min" }, "geometry": { "type": "Point", "coordinates": [ -157.673059899143112, 21.285581386409692 ] } },
{ "type": "Feature", "properties": { "objectid": 72, "fignum": 32, "name": "Malaekahana Bay", "loc": "Malaekahana & La'ie, Ko'olauloa", "aname": " ", "siglevel": 3, "sigregion": 3, "beginner": "1-3", "intermedia": "3-5", "expert": " ", "surftype": " ", "hazcond": 0, "comments": " ", "lifeguard_distance_km": 10.670132951377052, "lifeguard_time_min": 128.04159541652461, "lifeguard_category": "20+ min", "swim_distance_km": 0.25481756540108458, "swim_time_min": 7.6445269620325371, "swim_category": "5-10 min" }, "geometry": { "type": "Point", "coordinates": [ -157.936856916885972, 21.671022967125047 ] } },
{ "type": "Feature", "properties": { "objectid": 73, "fignum": 32, "name": "Hukilau", "loc": "La'ie Beach, La'ie, Ko'olauloa", "aname": " ", "siglevel": 0, "sigregion": 2, "beginner": "1-3", "intermedia": " ", "expert": " ", "surftype": " ", "hazcond": 0, "comments": " ", "lifeguard_distance_km": 11.712987483920639, "lifeguard_time_min": 140.55584980704765, "lifeguard_category": "20+ min", "swim_distance_km": 0.26851397388996673, "swim_time_min": 8.0554192166990024, "swim_category": "5-10 min" }, "geometry": { "type": "Point", "coordinates": [ -157.928695479777048, 21.654967943713149 ] } },
{ "type": "Feature", "properties": { "objectid": 74, "fignum": 32, "name": "Pounders", "loc": "La'ie, Ko'olauloa", "aname": " ", "siglevel": 0, "sigregion": 2, "beginner": " ", "intermedia": "1-5", "expert": " ", "surftype": " ", "hazcond": 0, "comments": " ", "lifeguard_distance_km": 13.195235177283035, "lifeguard_time_min": 158.34282212739643, "lifeguard_category": "20+ min", "swim_distance_km": 0.15519293961515862, "swim_time_min": 4.6557881884547587, "swim_category": "0-5 min" }, "geometry": { "type": "Point", "coordinates": [ -157.920425826738665, 21.633066348688573 ] } },
{ "type": "Feature", "properties": { "objectid": 75, "fignum": 32, "name": "Kokololio Beach", "loc": "Laie, Ko'olauloa", "aname": "Mahakea Beach & Kakela Beach", "siglevel": 0, "sigregion": 2, "beginner": "1-3", "intermedia": " ", "expert": " ", "surftype": " ", "hazcond": 0, "comments": " ", "lifeguard_distance_km": 13.462807970292889, "lifeguard_time_min": 161.55369564351469, "lifeguard_category": "20+ min", "swim_distance_km": 0.42933930468152304, "swim_time_min": 12.880179140445691, "swim_category": "10-20 min" }, "geometry": { "type": "Point", "coordinates": [ -157.920703032100619, 21.625990126204446 ] } },
{ "type": "Feature", "properties": { "objectid": 76, "fignum": 34, "name": "North Beach", "loc": "He'eia & Kane'ohe, Ko'olaupoko", "aname": " ", "siglevel": 3, "sigregion": 4, "beginner": " ", "intermedia": "1-5", "expert": " ", "surftype": " ", "hazcond": 0, "comments": " ", "lifeguard_distance_km": 0.95205629048213858, "lifeguard_time_min": 11.424675485785663, "lifeguard_category": "10-20 min", "swim_distance_km": 3.3560887828147297, "swim_time_min": 100.68266348444189, "swim_category": "20+ min" }, "geometry": { "type": "Point", "coordinates": [ -157.752042646371649, 21.455610452594257 ] } },
{ "type": "Feature", "properties": { "objectid": 77, "fignum": 34, "name": "Kailua Beach", "loc": "Kailua, Ko'olaupoko", "aname": " ", "siglevel": 3, "sigregion": 4, "beginner": "1-3", "intermedia": "3-5", "expert": " ", "surftype": " ", "hazcond": 0, "comments": " ", "lifeguard_distance_km": 1.7364140048336671, "lifeguard_time_min": 20.836968058004004, "lifeguard_category": "20+ min", "swim_distance_km": 0.2295011528013797, "swim_time_min": 6.8850345840413913, "swim_category": "5-10 min" }, "geometry": { "type": "Point", "coordinates": [ -157.7400926981758, 21.406605597224829 ] } },
{ "type": "Feature", "properties": { "objectid": 78, "fignum": 39, "name": "Turtle Beach", "loc": "Papaoneone Beach, Makaha, Wai'anae", "aname": " ", "siglevel": 0, "sigregion": 1, "beginner": " ", "intermedia": "1-5", "expert": " ", "surftype": " ", "hazcond": 0, "comments": " ", "lifeguard_distance_km": 1.8368538662428673, "lifeguard_time_min": 22.042246394914407, "lifeguard_category": "20+ min", "swim_distance_km": 0.24782804679266215, "swim_time_min": 7.4348414037798642, "swim_category": "5-10 min" }, "geometry": { "type": "Point", "coordinates": [ -158.213090953671269, 21.462104064934369 ] } },
{ "type": "Feature", "properties": { "objectid": 79, "fignum": 38, "name": "Ulehawa Beach", "loc": "Lualualei, Wai'anae", "aname": " ", "siglevel": 3, "sigregion": 2, "beginner": " ", "intermedia": "1-5", "expert": " ", "surftype": " ", "hazcond": 0, "comments": " ", "lifeguard_distance_km": 1.7507967759309571, "lifeguard_time_min": 21.009561311171485, "lifeguard_category": "20+ min", "swim_distance_km": 1.84842725431338, "swim_time_min": 55.452817629401402, "swim_category": "20+ min" }, "geometry": { "type": "Point", "coordinates": [ -158.15967017552552, 21.393403219712759 ] } },
{ "type": "Feature", "properties": { "objectid": 80, "fignum": 39, "name": "Makaha", "loc": "Makaha Beach, Makaha, Wai'anae", "aname": " ", "siglevel": 3, "sigregion": 3, "beginner": " ", "intermedia": "1-5", "expert": " ", "surftype": " ", "hazcond": 0, "comments": " ", "lifeguard_distance_km": 0.058549042827122373, "lifeguard_time_min": 0.70258851392546851, "lifeguard_category": "0-5 min", "swim_distance_km": 0.22217905424618103, "swim_time_min": 6.6653716273854311, "swim_category": "5-10 min" }, "geometry": { "type": "Point", "coordinates": [ -158.220920112485999, 21.476926130780207 ] } },
{ "type": "Feature", "properties": { "objectid": 81, "fignum": 31, "name": "Waimea Bay", "loc": "Waimea, Waialua", "aname": " ", "siglevel": 0, "sigregion": 2, "beginner": " ", "intermedia": "1-3", "expert": "3-10", "surftype": " ", "hazcond": 0, "comments": " ", "lifeguard_distance_km": 0.1141001640306888, "lifeguard_time_min": 1.3692019683682657, "lifeguard_category": "0-5 min", "swim_distance_km": 0.39053561871987452, "swim_time_min": 11.716068561596236, "swim_category": "10-20 min" }, "geometry": { "type": "Point", "coordinates": [ -158.064184802628859, 21.640411425562171 ] } },
{ "type": "Feature", "properties": { "objectid": 82, "fignum": 31, "name": "Banzai Pipeline", "loc": "Pupukea, Ko'olauloa", "aname": " ", "siglevel": 3, "sigregion": 4, "beginner": " ", "intermedia": " ", "expert": "1-10", "surftype": " ", "hazcond": 0, "comments": " ", "lifeguard_distance_km": 0.13942166490016403, "lifeguard_time_min": 1.6730599788019684, "lifeguard_category": "0-5 min", "swim_distance_km": 0.1564817110025159, "swim_time_min": 4.6944513300754771, "swim_category": "0-5 min" }, "geometry": { "type": "Point", "coordinates": [ -158.052254975624976, 21.665140918448184 ] } },
{ "type": "Feature", "properties": { "objectid": 83, "fignum": 31, "name": "'Ehukai", "loc": "Pupukea, Ko'olauloa", "aname": " ", "siglevel": 0, "sigregion": 4, "beginner": " ", "intermedia": "1-5", "expert": " ", "surftype": " ", "hazcond": 0, "comments": " ", "lifeguard_distance_km": 0.078456758627005976, "lifeguard_time_min": 0.94148110352407177, "lifeguard_category": "0-5 min", "swim_distance_km": 0.13114094841041635, "swim_time_min": 3.9342284523124906, "swim_category": "0-5 min" }, "geometry": { "type": "Point", "coordinates": [ -158.051529486074287, 21.665796297950433 ] } }
]
}
